[{"OBJECT_NAME":"STARLINK-31912","OBJECT_ID":"2024-084C","EPOCH":"2026-03-09T07:35:01.806432","MEAN_MOTION":15.27585524,"ECCENTRICITY":0.00010975,"INCLINATION":43.0049,"RA_OF_ASC_NODE":44.1145,"ARG_OF_PERICENTER":270.0145,"MEAN_ANOMALY":90.0581,"EPHEMERIS_TYPE":0,"CLASSIFICATION_TYPE":"U","NORAD_CAT_ID":59656,"ELEMENT_SET_NO":999,"REV_AT_EPOCH":10431,"BSTAR":3.8474178e-5,"MEAN_MOTION_DOT":7.97e-6,"MEAN_MOTION_DDOT":0},{"OBJECT_NAME":"PHISAT 2","OBJECT_ID":"2024-149C","EPOCH":"2026-03-09T18:55:12.732384","MEAN_MOTION":15.29548632,"ECCENTRICITY":0.00011753,"INCLINATION":97.3806,"RA_OF_ASC_NODE":148.6498,"ARG_OF_PERICENTER":168.623,"MEAN_ANOMALY":191.5037,"EPHEMERIS_TYPE":0,"CLASSIFICATION_TYPE":"U","NORAD_CAT_ID":60470,"ELEMENT_SET_NO":999,"REV_AT_EPOCH":8679,"BSTAR":0.00031420974,"MEAN_MOTION_DOT":8.925e-5,"MEAN_MOTION_DDOT":0}]
